IRIDIUM 36              
1 24967U 97056C   24271.14077942  .00001025  00000+0  33902-3 0  9992
2 24967  86.3906 283.4746 0002414  95.4510 264.6962 14.37052910414434
IRIDIUM 39              
1 25042U 97069D   24271.13462615  .00001728  00000+0  45526-3 0  9990
2 25042  86.3927 323.9264 0020430 103.8750 256.4729 14.48376360411139
IRIDIUM 38              
1 25043U 97069E   24270.28028286  .00001205  00000+0  39576-3 0  9996
2 25043  86.4008 344.1994 0001058 153.4894 206.6358 14.37548170408039
IRIDIUM 42              
1 25077U 97077A   24270.31423148  .00001169  00000+0  39750-3 0  9995
2 25077  86.4020 350.0247 0001505 100.1659 259.9707 14.35825011403328
IRIDIUM 44              
1 25078U 97077B   24270.42180711  .00001111  00000+0  34913-3 0  9997
2 25078  86.3986 332.6191 0003113 129.6726 230.4748 14.39668361405745
IRIDIUM 45              
1 25104U 97082A   24271.17642711  .00021212  00000+0  10622-2 0  9993
2 25104  86.3709 174.2114 0144291 226.7852 132.1263 15.08515722412450
IRIDIUM 24              
1 25105U 97082B   24271.14767473  .00001449  00000+0  44042-3 0  9998
2 25105  86.3983 191.7311 0009634 218.6992 141.3519 14.41491065405563
IRIDIUM 51              
1 25262U 98018A   24271.15546339  .00030309  00000+0  12037-2 0  9994
2 25262  86.3997 183.7080 0131200 163.4832 197.0749 15.17486186407063
